$$SOE
2459580.500000000, A.D. 2022-Jan-01 00:00:00.0000, -1.307989987880810E+08, 4.467403594500190E+08, 6.836748539091122E+07,
2459587.500000000, A.D. 2022-Jan-08 00:00:00.0000, -1.415546482054642E+08, 4.437435590600684E+08, 6.795715529138994E+07,
2459594.500000000, A.D. 2022-Jan-15 00:00:00.0000, -1.522444621072288E+08, 4.405402109228523E+08, 6.751519356867018E+07,
2459601.500000000, A.D. 2022-Jan-22 00:00:00.0000, -1.628635800781537E+08, 4.371321488912055E+08, 6.704185828716078E+07,
2459608.500000000, A.D. 2022-Jan-29 00:00:00.0000, -1.734072122995246E+08, 4.335213574802085E+08, 6.653743041688836E+07,
2459615.500000000, A.D. 2022-Feb-05 00:00:00.0000, -1.838706477107418E+08, 4.297099676019272E+08, 6.600221345870730E+07,
2459622.500000000, A.D. 2022-Feb-12 00:00:00.0000, -1.942492597680636E+08, 4.257002509305309E+08, 6.543653273770905E+07,
2459629.500000000, A.D. 2022-Feb-19 00:00:00.0000, -2.045385111098911E+08, 4.214946152877064E+08, 6.484073468346274E+07,
2459636.500000000, A.D. 2022-Feb-26 00:00:00.0000, -2.147339584230991E+08, 4.170956003469251E+08, 6.421518616135615E+07,
2459643.500000000, A.D. 2022-Mar-05 00:00:00.0000, -2.248312573353319E+08, 4.125058730597844E+08, 6.356027379264095E+07,
2459650.500000000, A.D. 2022-Mar-12 00:00:00.0000, -2.348261670978517E+08, 4.077282227589573E+08, 6.287640324006695E+07,
2459657.500000000, A.D. 2022-Mar-19 00:00:00.0000, -2.447145549763454E+08, 4.027655559866555E+08, 6.216399845755973E+07,
2459664.500000000, A.D. 2022-Mar-26 00:00:00.0000, -2.544924003177060E+08, 3.976208910640624E+08, 6.142350090419757E+07,
2459671.500000000, A.D. 2022-Apr-02 00:00:00.0000, -2.641557982172971E+08, 3.922973523676895E+08, 6.065536871461008E+07,
2459678.500000000, A.D. 2022-Apr-09 00:00:00.0000, -2.737009625088203E+08, 3.867981643394595E+08, 5.986007580425575E+07,
2459685.500000000, A.D. 2022-Apr-16 00:00:00.0000, -2.831242277158743E+08, 3.811266459066291E+08, 5.903811093339679E+07,
2459692.500000000, A.D. 2022-Apr-23 00:00:00.0000, -2.924220512326734E+08, 3.752862064184725E+08, 5.818997693807290E+07,
2459699.500000000, A.D. 2022-Apr-30 00:00:00.0000, -3.015910176036848E+08, 3.692803408778791E+08, 5.731619011947446E+07,
2459706.500000000, A.D. 2022-May-07 00:00:00.0000, -3.106278418386718E+08, 3.631126225152364E+08, 5.641727935244967E+07,
2459713.500000000, A.D. 2022-May-14 00:00:00.0000, -3.195293703764849E+08, 3.567866957618058E+08, 5.549378503699897E+07,
2459720.500000000, A.D. 2022-May-21 00:00:00.0000, -3.282925817345574E+08, 3.503062704025462E+08, 5.454625814441594E+07,
2459727.500000000, A.D. 2022-May-28 00:00:00.0000, -3.369145873285790E+08, 3.436751159705786E+08, 5.357525932677335E+07,
2459734.500000000, A.D. 2022-Jun-04 00:00:00.0000, -3.453926321915850E+08, 3.368970560894861E+08, 5.258135804164758E+07,
2459741.500000000, A.D. 2022-Jun-11 00:00:00.0000, -3.537240954556439E+08, 3.299759627835155E+08, 5.156513168176153E+07,
2459748.500000000, A.D. 2022-Jun-18 00:00:00.0000, -3.619064905665756E+08, 3.229157507860348E+08, 5.052716470976140E+07,
2459755.500000000, A.D. 2022-Jun-25 00:00:00.0000, -3.699374652123997E+08, 3.157203718292425E+08, 4.946804779527104E+07,
2459762.500000000, A.D. 2022-Jul-02 00:00:00.0000, -3.778148008424196E+08, 3.083938088644696E+08, 4.838837693896869E+07,
2459769.500000000, A.D. 2022-Jul-09 00:00:00.0000, -3.855364113983325E+08, 3.009400704038720E+08, 4.728875256461330E+07,
2459776.500000000, A.D. 2022-Jul-16 00:00:00.0000, -3.931003413251132E+08, 2.933631860787762E+08, 4.616977867469519E+07,
2459783.500000000, A.D. 2022-Jul-23 00:00:00.0000, -4.005047650740348E+08, 2.856672035041747E+08, 4.503206227976954E+07,
2459790.500000000, A.D. 2022-Jul-30 00:00:00.0000, -4.077479880275800E+08, 2.778561831069906E+08, 4.387621282158665E+07,
2459797.500000000, A.D. 2022-Aug-06 00:00:00.0000, -4.148284452595218E+08, 2.699341915751111E+08, 4.270284131444144E+07,
2459804.500000000, A.D. 2022-Aug-13 00:00:00.0000, -4.217446989671024E+08, 2.619052966879961E+08, 4.151255950678790E+07,
2459811.500000000, A.D. 2022-Aug-20 00:00:00.0000, -4.284954361603608E+08, 2.537735630325003E+08, 4.030597916737145E+07,
2459818.500000000, A.D. 2022-Aug-27 00:00:00.0000, -4.350794665551922E+08, 2.455430478841058E+08, 3.908371143146770E+07,
2459825.500000000, A.D. 2022-Sep-03 00:00:00.0000, -4.414957204359774E+08, 2.372177971482127E+08, 3.784636617636839E+07,
2459832.500000000, A.D. 2022-Sep-10 00:00:00.0000, -4.477432464110290E+08, 2.288018413892710E+08, 3.659455142046100E+07,
2459839.500000000, A.D. 2022-Sep-17 00:00:00.0000, -4.538212090442682E+08, 2.202991919486943E+08, 3.532887274345684E+07,
2459846.500000000, A.D. 2022-Sep-24 00:00:00.0000, -4.597288863149812E+08, 2.117138371019967E+08, 3.404993271823297E+07,
2459853.500000000, A.D. 2022-Oct-01 00:00:00.0000, -4.654656666777776E+08, 2.030497382327477E+08, 3.275833033044277E+07,
2459860.500000000, A.D. 2022-Oct-08 00:00:00.0000, -4.710310453278350E+08, 1.943108265441389E+08, 3.145466039108329E+07,
2459867.500000000, A.D. 2022-Oct-15 00:00:00.0000, -4.764246206164224E+08, 1.855010015054660E+08, 3.013951312528026E+07,
2459874.500000000, A.D. 2022-Oct-22 00:00:00.0000, -4.816460928123704E+08, 1.766241293481842E+08, 2.881347399948668E+07,
2459881.500000000, A.D. 2022-Oct-29 00:00:00.0000, -4.866952627245067E+08, 1.676840390174704E+08, 2.747712334559385E+07,
2459888.500000000, A.D. 2022-Nov-05 00:00:00.0000, -4.915720280955392E+08, 1.586845183184788E+08, 2.613103581276059E+07,
2459895.500000000, A.D. 2022-Nov-12 00:00:00.0000, -4.962763797419695E+08, 1.496293115206735E+08, 2.477577992997983E+07,
2459902.500000000, A.D. 2022-Nov-19 00:00:00.0000, -5.008083981698563E+08, 1.405221174623720E+08, 2.341191776661361E+07,
2459909.500000000, A.D. 2022-Nov-26 00:00:00.0000, -5.051682504135838E+08, 1.313665877544241E+08, 2.204000463359594E+07,
2459916.500000000, A.D. 2022-Dec-03 00:00:00.0000, -5.093561869398645E+08, 1.221663250670500E+08, 2.066058880835016E+07,
2459923.500000000, A.D. 2022-Dec-10 00:00:00.0000, -5.133725385791540E+08, 1.129248815134823E+08, 1.927421127999474E+07,
2459930.500000000, A.D. 2022-Dec-17 00:00:00.0000, -5.172177134670649E+08, 1.036457571000537E+08, 1.788140550975290E+07,
2459937.500000000, A.D. 2022-Dec-24 00:00:00.0000, -5.208921938932321E+08, 9.433239817135477E+07, 1.648269719038007E+07,
2459944.500000000, A.D. 2022-Dec-31 00:00:00.0000, -5.243965327062567E+08, 8.498819595229432E+07, 1.507860397981857E+07,
2459951.500000000, A.D. 2023-Jan-07 00:00:00.0000, -5.277313491576540E+08, 7.561648614354046E+07, 1.366963527568793E+07,
2459958.500000000, A.D. 2023-Jan-14 00:00:00.0000, -5.308973261572646E+08, 6.622055006091875E+07, 1.225629225082381E+07,
2459965.500000000, A.D. 2023-Jan-21 00:00:00.0000, -5.338952095907192E+08, 5.680361414017764E+07, 1.083906794889843E+07,
2459972.500000000, A.D. 2023-Jan-28 00:00:00.0000, -5.367258060356951E+08, 4.736884760646142E+07, 9.418447086921811E+06,
2459979.500000000, A.D. 2023-Feb-04 00:00:00.0000, -5.393899790882484E+08, 3.791936133053110E+07, 7.994905830436710E+06,
2459986.500000000, A.D. 2023-Feb-11 00:00:00.0000, -5.418886460974232E+08, 2.845820767164167E+07, 6.568911689460451E+06,
2459993.500000000, A.D. 2023-Feb-18 00:00:00.0000, -5.442227753749754E+08, 1.898838047790661E+07, 5.140923472893172E+06,
2460000.500000000, A.D. 2023-Feb-25 00:00:00.0000, -5.463933836203707E+08, 9.512815077033291E+06, 3.711391263315890E+06,
2460007.500000000, A.D. 2023-Mar-04 00:00:00.0000, -5.484015334609045E+08, 3.438827108090383E+04, 2.280756403642415E+06,
2460014.500000000, A.D. 2023-Mar-11 00:00:00.0000, -5.502483310797536E+08, -9.444081669426329E+06, 8.494514923872645E+05,
2460021.500000000, A.D. 2023-Mar-18 00:00:00.0000, -5.519349238859174E+08, -1.891983506666187E+07, -5.820996214279886E+05,
2460028.500000000, A.D. 2023-Mar-25 00:00:00.0000, -5.534624980234317E+08, -2.839017100425266E+07, -2.013481866811775E+06,
2460035.500000000, A.D. 2023-Apr-01 00:00:00.0000, -5.548322752956967E+08, -3.785244721530122E+07, -3.444289010114117E+06,
2460042.500000000, A.D. 2023-Apr-08 00:00:00.0000, -5.560455101204355E+08, -4.730407846985108E+07, -4.874123589092787E+06,
2460049.500000000, A.D. 2023-Apr-15 00:00:00.0000, -5.571034888527548E+08, -5.674253457330494E+07, -6.302596598362196E+06,
2460056.500000000, A.D. 2023-Apr-22 00:00:00.0000, -5.580075296683507E+08, -6.616534103263393E+07, -7.729327342245776E+06,
2460063.500000000, A.D. 2023-Apr-29 00:00:00.0000, -5.587589802722839E+08, -7.557008014139158E+07, -9.153943522417121E+06,
2460070.500000000, A.D. 2023-May-06 00:00:00.0000, -5.593592151927470E+08, -8.495439070621583E+07, -1.057608125394119E+07,
2460077.500000000, A.D. 2023-May-13 00:00:00.0000, -5.598096336359135E+08, -9.431596731247275E+07, -1.199538499389535E+07,
2460084.500000000, A.D. 2023-May-20 00:00:00.0000, -5.601116576672753E+08, -1.036525596238670E+08, -1.341150744500381E+07,
2460091.500000000, A.D. 2023-May-27 00:00:00.0000, -5.602667305250542E+08, -1.129619717487577E+08, -1.482410945523189E+07,
2460098.500000000, A.D. 2023-Jun-03 00:00:00.0000, -5.602763150066012E+08, -1.222420616505096E+08, -1.623285991725080E+07,
2460105.500000000, A.D. 2023-Jun-10 00:00:00.0000, -5.601418919023912E+08, -1.314907406192127E+08, -1.763743567182623E+07,
2460112.500000000, A.D. 2023-Jun-17 00:00:00.0000, -5.598649583872778E+08, -1.407059728685492E+08, -1.903752142897182E+07,
2460119.500000000, A.D. 2023-Jun-24 00:00:00.0000, -5.594470260480980E+08, -1.498857752056528E+08, -2.043280973243694E+07,
2460126.500000000, A.D. 2023-Jul-01 00:00:00.0000, -5.588896182936152E+08, -1.590282159488610E+08, -2.182300092378699E+07,
2460133.500000000, A.D. 2023-Jul-08 00:00:00.0000, -5.581942688196601E+08, -1.681314122739925E+08, -2.320780288599532E+07,
2460140.500000000, A.D. 2023-Jul-15 00:00:00.0000, -5.573625224052289E+08, -1.771935288216362E+08, -2.458693068130368E+07,
2460147.500000000, A.D. 2023-Jul-22 00:00:00.0000, -5.563959345174665E+08, -1.862127786021177E+08, -2.596010649142242E+07,
$$EOE